start=new Date('2023-04-20T00:00:00.000Z').valueOf();
sats=[{"BSTAR":"0.00605190000000","OBJECT_NAME":"STARLINK-3792","REV_AT_EPOCH":"5639","MEAN_ELEMENT_THEORY":"SGP4","ECCENTRICITY":"0.00008070","TIME_SYSTEM":"UTC","PERIOD":"95.422","OBJECT_ID":"2022-045J","CLASSIFICATION_TYPE":"U","DECAY_DATE":null,"INCLINATION":"53.2141","FILE":"3890520","EPOCH":"2023-04-19T19:39:56.468448","COUNTRY_CODE":"US","ARG_OF_PERICENTER":"84.3131","REF_FRAME":"TEME","RA_OF_ASC_NODE":"264.6103","NORAD_CAT_ID":"52339","OBJECT_TYPE":"PAYLOAD","TLE_LINE1":"1 52339U 22045J   23109.81940357  .00098049  00000-0  60519-2 0  9990","GP_ID":"230395525","CENTER_NAME":"EARTH","SEMIMAJOR_AXIS":"6917.107","MEAN_ANOMALY":"275.7954","ELEMENT_SET_NO":"999","RCS_SIZE":"LARGE","EPHEMERIS_TYPE":"0","PERIAPSIS":"538.414","SITE":"AFETR","MEAN_MOTION":"15.09093103","LAUNCH_DATE":"2022-04-29","APOAPSIS":"539.530","TLE_LINE2":"2 52339  53.2141 264.6103 0000807  84.3131 275.7954 15.09093103 56390","MEAN_MOTION_DOT":"0.00098049","MEAN_MOTION_DDOT":"0.0000000000000"},{"REF_FRAME":"TEME","ARG_OF_PERICENTER":"80.0599","COUNTRY_CODE":"US","RA_OF_ASC_NODE":"255.0785","EPOCH":"2023-04-19T17:11:39.177888","FILE":"3890520","ECCENTRICITY":"0.00013940","TIME_SYSTEM":"UTC","MEAN_ELEMENT_THEORY":"SGP4","REV_AT_EPOCH":"5650","DECAY_DATE":null,"INCLINATION":"53.2166","CLASSIFICATION_TYPE":"U","OBJECT_ID":"2022-045K","PERIOD":"95.437","OBJECT_NAME":"STARLINK-3818","BSTAR":"0.00020436000000","APOAPSIS":"540.702","LAUNCH_DATE":"2022-04-29","MEAN_MOTION_DDOT":"0.0000000000000","MEAN_MOTION_DOT":"0.00002966","TLE_LINE2":"2 52340  53.2166 255.0785 0001394  80.0599 280.0550 15.08842482 56507","PERIAPSIS":"538.773","EPHEMERIS_TYPE":"0","RCS_SIZE":"LARGE","MEAN_MOTION":"15.08842482","SITE":"AFETR","CENTER_NAME":"EARTH","ELEMENT_SET_NO":"999","MEAN_ANOMALY":"280.0550","SEMIMAJOR_AXIS":"6917.873","NORAD_CAT_ID":"52340","TLE_LINE1":"1 52340U 22045K   23109.71642567  .00002966  00000-0  20436-3 0  9991","GP_ID":"230395776","OBJECT_TYPE":"PAYLOAD"},{"CENTER_NAME":"EARTH","ELEMENT_SET_NO":"999","MEAN_ANOMALY":"282.8889","SEMIMAJOR_AXIS":"6917.858","NORAD_CAT_ID":"52341","GP_ID":"230396527","TLE_LINE1":"1 52341U 22045L   23109.68605909  .00023750  00000-0  15050-2 0  9996","OBJECT_TYPE":"PAYLOAD","APOAPSIS":"540.195","LAUNCH_DATE":"2022-04-29","MEAN_MOTION_DDOT":"0.0000000000000","TLE_LINE2":"2 52341  53.2143 265.1629 0000682  77.2179 282.8889 15.08847405 56373","MEAN_MOTION_DOT":"0.00023750","PERIAPSIS":"539.251","RCS_SIZE":"LARGE","EPHEMERIS_TYPE":"0","MEAN_MOTION":"15.08847405","SITE":"AFETR","TIME_SYSTEM":"UTC","ECCENTRICITY":"0.00006820","MEAN_ELEMENT_THEORY":"SGP4","REV_AT_EPOCH":"5637","DECAY_DATE":null,"INCLINATION":"53.2143","OBJECT_ID":"2022-045L","CLASSIFICATION_TYPE":"U","PERIOD":"95.437","OBJECT_NAME":"STARLINK-3843","BSTAR":"0.00150500000000","REF_FRAME":"TEME","COUNTRY_CODE":"US","ARG_OF_PERICENTER":"77.2179","RA_OF_ASC_NODE":"265.1629","EPOCH":"2023-04-19T16:27:55.505376","FILE":"3890520"},{"REF_FRAME":"TEME","COUNTRY_CODE":"US","ARG_OF_PERICENTER":"84.5093","RA_OF_ASC_NODE":"255.1188","FILE":"3890520","EPOCH":"2023-04-19T17:02:25.963008","MEAN_ELEMENT_THEORY":"SGP4","TIME_SYSTEM":"UTC","ECCENTRICITY":"0.00013070","REV_AT_EPOCH":"5651","INCLINATION":"53.2168","DECAY_DATE":null,"PERIOD":"95.437","OBJECT_ID":"2022-045M","CLASSIFICATION_TYPE":"U","OBJECT_NAME":"STARLINK-3850","BSTAR":"0.00008752300000","APOAPSIS":"540.645","LAUNCH_DATE":"2022-04-29","MEAN_MOTION_DDOT":"0.0000000000000","TLE_LINE2":"2 52342  53.2168 255.1188 0001307  84.5093 275.6048 15.08841541 56519","MEAN_MOTION_DOT":"0.00001105","RCS_SIZE":"LARGE","EPHEMERIS_TYPE":"0","PERIAPSIS":"538.837","MEAN_MOTION":"15.08841541","SITE":"AFETR","CENTER_NAME":"EARTH","MEAN_ANOMALY":"275.6048","ELEMENT_SET_NO":"999","SEMIMAJOR_AXIS":"6917.876","NORAD_CAT_ID":"52342","OBJECT_TYPE":"PAYLOAD","GP_ID":"230395275","TLE_LINE1":"1 52342U 22045M   23109.71002272  .00001105  00000-0  87523-4 0  9991"},{"MEAN_MOTION_DOT":"0.00006104","TLE_LINE2":"2 52343  53.2140 265.0469 0001255  96.3505 263.7631 15.08848311 56386","MEAN_MOTION_DDOT":"0.0000000000000","LAUNCH_DATE":"2022-04-29","APOAPSIS":"540.588","SITE":"AFETR","MEAN_MOTION":"15.08848311","PERIAPSIS":"538.852","EPHEMERIS_TYPE":"0","RCS_SIZE":"LARGE","SEMIMAJOR_AXIS":"6917.855","ELEMENT_SET_NO":"999","MEAN_ANOMALY":"263.7631","CENTER_NAME":"EARTH","TLE_LINE1":"1 52343U 22045N   23109.72286314  .00006104  00000-0  40120-3 0  9999","GP_ID":"230395025","OBJECT_TYPE":"PAYLOAD","NORAD_CAT_ID":"52343","RA_OF_ASC_NODE":"265.0469","COUNTRY_CODE":"US","ARG_OF_PERICENTER":"96.3505","REF_FRAME":"TEME","EPOCH":"2023-04-19T17:20:55.375296","FILE":"3890520","OBJECT_ID":"2022-045N","CLASSIFICATION_TYPE":"U","PERIOD":"95.437","INCLINATION":"53.2140","DECAY_DATE":null,"REV_AT_EPOCH":"5638","ECCENTRICITY":"0.00012550","TIME_SYSTEM":"UTC","MEAN_ELEMENT_THEORY":"SGP4","BSTAR":"0.00040120000000","OBJECT_NAME":"STARLINK-3849"},{"OBJECT_TYPE":"PAYLOAD","GP_ID":"230396277","TLE_LINE1":"1 52344U 22045P   23109.70907080  .00005941  00000-0  39095-3 0  9995","NORAD_CAT_ID":"52344","MEAN_ANOMALY":"275.5162","ELEMENT_SET_NO":"999","SEMIMAJOR_AXIS":"6917.860","CENTER_NAME":"EARTH","MEAN_MOTION":"15.08846630","SITE":"AFETR","RCS_SIZE":"LARGE","EPHEMERIS_TYPE":"0","PERIAPSIS":"538.921","MEAN_MOTION_DDOT":"0.0000000000000","MEAN_MOTION_DOT":"0.00005941","TLE_LINE2":"2 52344  53.2159 255.1793 0001163  84.5963 275.5162 15.08846630 56519","APOAPSIS":"540.530","LAUNCH_DATE":"2022-04-29","OBJECT_NAME":"STARLINK-3851","BSTAR":"0.00039095000000","DECAY_DATE":null,"INCLINATION":"53.2159","PERIOD":"95.437","CLASSIFICATION_TYPE":"U","OBJECT_ID":"2022-045P","MEAN_ELEMENT_THEORY":"SGP4","ECCENTRICITY":"0.00011630","TIME_SYSTEM":"UTC","REV_AT_EPOCH":"5651","FILE":"3890520","EPOCH":"2023-04-19T17:01:03.717120","RA_OF_ASC_NODE":"255.1793","REF_FRAME":"TEME","ARG_OF_PERICENTER":"84.5963","COUNTRY_CODE":"US"},{"APOAPSIS":"540.541","LAUNCH_DATE":"2022-04-29","MEAN_MOTION_DDOT":"0.0000000000000","TLE_LINE2":"2 52345  53.2164 255.0609 0001169  90.0124 270.1002 15.08844424 56500","MEAN_MOTION_DOT":"0.00002467","EPHEMERIS_TYPE":"0","RCS_SIZE":"LARGE","PERIAPSIS":"538.923","MEAN_MOTION":"15.08844424","SITE":"AFETR","CENTER_NAME":"EARTH","MEAN_ANOMALY":"270.1002","ELEMENT_SET_NO":"999","SEMIMAJOR_AXIS":"6917.867","NORAD_CAT_ID":"52345","OBJECT_TYPE":"PAYLOAD","GP_ID":"230396027","TLE_LINE1":"1 52345U 22045Q   23109.72010099  .00002467  00000-0  17300-3 0  9998","REF_FRAME":"TEME","COUNTRY_CODE":"US","ARG_OF_PERICENTER":"90.0124","RA_OF_ASC_NODE":"255.0609","FILE":"3890520","EPOCH":"2023-04-19T17:16:56.725536","MEAN_ELEMENT_THEORY":"SGP4","TIME_SYSTEM":"UTC","ECCENTRICITY":"0.00011690","REV_AT_EPOCH":"5650","INCLINATION":"53.2164","DECAY_DATE":null,"PERIOD":"95.437","OBJECT_ID":"2022-045Q","CLASSIFICATION_TYPE":"U","OBJECT_NAME":"STARLINK-3852","BSTAR":"0.00017300000000"},{"RA_OF_ASC_NODE":"254.5500","REF_FRAME":"TEME","ARG_OF_PERICENTER":"73.5575","COUNTRY_CODE":"US","FILE":"3890520","EPOCH":"2023-04-19T20:01:13.303200","DECAY_DATE":null,"INCLINATION":"53.2154","PERIOD":"95.437","OBJECT_ID":"2022-045R","CLASSIFICATION_TYPE":"U","MEAN_ELEMENT_THEORY":"SGP4","TIME_SYSTEM":"UTC","ECCENTRICITY":"0.00007120","REV_AT_EPOCH":"5653","OBJECT_NAME":"STARLINK-3812","BSTAR":"0.00095824000000","MEAN_MOTION_DDOT":"0.0000000000000","MEAN_MOTION_DOT":"0.00015002","TLE_LINE2":"2 52346  53.2154 254.5500 0000712  73.5575 286.5496 15.08855010 56537","APOAPSIS":"540.192","LAUNCH_DATE":"2022-04-29","MEAN_MOTION":"15.08855010","SITE":"AFETR","RCS_SIZE":"LARGE","EPHEMERIS_TYPE":"0","PERIAPSIS":"539.207","MEAN_ANOMALY":"286.5496","ELEMENT_SET_NO":"999","SEMIMAJOR_AXIS":"6917.835","CENTER_NAME":"EARTH","OBJECT_TYPE":"PAYLOAD","TLE_LINE1":"1 52346U 22045R   23109.83418175  .00015002  00000-0  95824-3 0  9994","GP_ID":"230394776","NORAD_CAT_ID":"52346"},{"CENTER_NAME":"EARTH","ELEMENT_SET_NO":"999","MEAN_ANOMALY":"324.1672","SEMIMAJOR_AXIS":"6917.904","NORAD_CAT_ID":"52347","GP_ID":"230395526","TLE_LINE1":"1 52347U 22045S   23109.71274986 -.00000577  00000-0 -18181-4 0  9997","OBJECT_TYPE":"PAYLOAD","APOAPSIS":"541.152","LAUNCH_DATE":"2022-04-29","MEAN_MOTION_DDOT":"0.0000000000000","MEAN_MOTION_DOT":"-0.00000577","TLE_LINE2":"2 52347  53.2145 255.0913 0001999  35.9455 324.1672 15.08832278 56513","PERIAPSIS":"538.386","RCS_SIZE":"LARGE","EPHEMERIS_TYPE":"0","MEAN_MOTION":"15.08832278","SITE":"AFETR","ECCENTRICITY":"0.00019990","TIME_SYSTEM":"UTC","MEAN_ELEMENT_THEORY":"SGP4","REV_AT_EPOCH":"5651","DECAY_DATE":null,"INCLINATION":"53.2145","OBJECT_ID":"2022-045S","CLASSIFICATION_TYPE":"U","PERIOD":"95.438","OBJECT_NAME":"STARLINK-3826","BSTAR":"-0.00001818100000","REF_FRAME":"TEME","ARG_OF_PERICENTER":"35.9455","COUNTRY_CODE":"US","RA_OF_ASC_NODE":"255.0913","EPOCH":"2023-04-19T17:06:21.587904","FILE":"3890520"},{"APOAPSIS":"540.714","LAUNCH_DATE":"2022-04-29","MEAN_MOTION_DDOT":"0.0000000000000","TLE_LINE2":"2 52348  53.2157 255.1770 0001483  98.6808 261.4352 15.08858724 56517","MEAN_MOTION_DOT":"0.00028772","EPHEMERIS_TYPE":"0","RCS_SIZE":"LARGE","PERIAPSIS":"538.662","MEAN_MOTION":"15.08858724","SITE":"AFETR","CENTER_NAME":"EARTH","MEAN_ANOMALY":"261.4352","ELEMENT_SET_NO":"999","SEMIMAJOR_AXIS":"6917.823","NORAD_CAT_ID":"52348","OBJECT_TYPE":"PAYLOAD","TLE_LINE1":"1 52348U 22045T   23109.69434422  .00028772  00000-0  18176-2 0  9995","GP_ID":"230395777","REF_FRAME":"TEME","COUNTRY_CODE":"US","ARG_OF_PERICENTER":"98.6808","RA_OF_ASC_NODE":"255.1770","FILE":"3890520","EPOCH":"2023-04-19T16:39:51.340608","MEAN_ELEMENT_THEORY":"SGP4","TIME_SYSTEM":"UTC","ECCENTRICITY":"0.00014830","REV_AT_EPOCH":"5651","INCLINATION":"53.2157","DECAY_DATE":null,"PERIOD":"95.436","OBJECT_ID":"2022-045T","CLASSIFICATION_TYPE":"U","OBJECT_NAME":"STARLINK-3829","BSTAR":"0.00181760000000"}];
